satname,norad_id,inclination_deg,eccentricity,mean_motion_rev_per_day,perigee_km,apogee_km,l1,l2
STARLINK-1296,45412,53.1593,0.0004434,15.34280544,460.024925648062,466.09169765043225,1 45412U 20019BE  26113.63995882  .00048443  00000+0  14408-2 0  9992,2 45412  53.1593 279.8429 0004434 218.3716 141.6972 15.34280544336860
STARLINK-1309,45414,53.0633,0.0004884,15.63581507,374.02204258891743,380.6207743623172,1 45414U 20019BG  26113.68723412  .00098951  00000+0  10387-2 0  9998,2 45414  53.0633 264.7430 0004884 236.8920 123.1626 15.63581507337050
STARLINK-1316,45415,53.1571,0.0002743,15.34398985,460.8298136972744,464.5827003080667,1 45415U 20019BH  26113.16186071  .00039752  00000+0  11814-2 0  9996,2 45415  53.1571 282.1066 0002743 263.9167  96.1523 15.34398985336810
STARLINK-1286,45417,53.0475,0.0002439,15.54494329,401.96887975905884,405.2770222631616,1 45417U 20019BK  26113.66332173  .00038597  00000+0  58036-3 0  9993,2 45417  53.0475 274.0313 0002439 208.5259 151.5618 15.54494329337215
STARLINK-1308,45419,53.0501,0.0005329,15.58438908,388.566635893656,395.78243392756394,1 45419U 20019BM  26111.81779945  .00063216  00000+0  81452-3 0  9996,2 45419  53.0501 303.7092 0005329 208.0706 152.0019 15.58438908336387
STARLINK-1329,45531,53.0425,0.0002993,15.67877287,362.95816766392363,366.99459533408935,1 45531U 20025A   26113.57064885  .00047733  00000+0  42741-3 0  9997,2 45531  53.0425 221.4751 0002993 358.2960   1.8045 15.67877287332472
STARLINK-1338,45532,53.0454,0.0001825,15.62797238,378.3480271713606,380.8145943547888,1 45532U 20025B   26113.71179484  .00093118  00000+0  10094-2 0  9999,2 45532  53.0454 225.8186 0001825 323.9376  36.1514 15.62797238332427
STARLINK-1350,45535,53.0709,6.97e-05,15.37196686,453.92727700527576,454.8797331516844,1 45535U 20025E   26113.47155918  .00009680  00000+0  27207-3 0  9997,2 45535  53.0709 182.6427 0000697  70.2894 289.8183 15.37196686333044
STARLINK-1362,45538,53.16,0.0001937,15.3290349,465.8288685063326,468.48073455024496,1 45538U 20025H   26113.68936849 -.00158079  00000+0 -49974-2 0  9996,2 45538  53.1600 251.6143 0001937  95.2199 264.9024 15.32903490332077
STARLINK-1368,45540,53.1597,0.0001073,15.3339238,464.9653953717989,466.4340827360011,1 45540U 20025K   26113.63799030  .00047859  00000+0  14644-2 0  9990,2 45540  53.1597 252.2257 0001073  11.2715 348.8311 15.33392380332051
STARLINK-1371,45542,53.0477,0.0003991,15.54480012,400.95797463345025,406.3712086639043,1 45542U 20025M   26113.66364537  .00066644  00000+0  99375-3 0  9993,2 45542  53.0477 233.3216 0003991 323.8436  36.2303 15.54480012332318
STARLINK-1372,45543,53.1587,0.0001868,15.33765262,463.312244409095,465.86868739035526,1 45543U 20025N   26113.67622908  .00044499  00000+0  13471-2 0  9990,2 45543  53.1587 251.7024 0001868  12.7956 347.3094 15.33765262331160
STARLINK-1373,45544,53.0444,0.0002127,15.58844523,389.56025456501266,392.43984546608954,1 45544U 20025P   26113.62620258  .00086582  00000+0  10936-2 0  9994,2 45544  53.0444 231.7470 0002127 302.4233  57.6573 15.58844523332339
STARLINK-1327,45555,53.0419,0.000397,15.61416271,380.88082415521967,386.2496157178484,1 45555U 20025AA  26113.62204664  .00075505  00000+0  86633-3 0  9996,2 45555  53.0419 208.4138 0003970 280.4884  79.5681 15.61416271332656
STARLINK-1356,45564,53.0468,0.0002337,15.51708843,410.1497287195698,413.3233156038277,1 45564U 20025AK  26113.59086235  .00069053  00000+0  11376-2 0  9996,2 45564  53.0468 218.9217 0002337 280.4138  79.6607 15.51708843332503
STARLINK-1357,45565,53.0446,0.0007243,15.64705922,369.19402178585915,378.9752900766407,1 45565U 20025AL  26113.35598572  .00035384  00000+0  36142-3 0  9992,2 45565  53.0446 180.3024 0007243 338.4627  21.6082 15.64705922333038
STARLINK-1361,45567,53.0457,0.0001332,15.55018769,401.1949434408316,403.00119806368,1 45567U 20025AN  26113.71691144  .00070383  00000+0  10284-2 0  9999,2 45567  53.0457 217.3543 0001332 228.0368 132.0529 15.55018769332542
STARLINK-1363,45568,53.0353,0.0002798,15.90556464,298.85590494299777,302.5933959225804,1 45568U 20025AP  26114.00003472  .00248221  33751-4  79705-3 0  9990,2 45568  53.0353 169.2405 0002798  22.7473 205.7664 15.90556464  5973
STARLINK-1366,45569,53.0362,0.0002852,15.87700896,306.82335895467895,310.63754815018456,1 45569U 20025AQ  26114.00003472  .00209549  00000+0  75081-3 0  9990,2 45569  53.0362 170.5533 0002852 346.8062 256.5988 15.87700896  6077
STARLINK-1376,45570,53.1567,0.0003295,15.34255014,460.8800042271423,465.3884019499783,1 45570U 20025AR  26113.66376213  .00045594  00000+0  13585-2 0  9997,2 45570  53.1567 228.2833 0003295 329.5576  30.5235 15.34255014332392
STARLINK-1320,45572,53.0458,0.0002582,15.76273748,339.2741410209319,342.74390802799553,1 45572U 20025AT  26113.23108460  .00069016  00000+0  43070-3 0  9997,2 45572  53.0458 124.6653 0002582 110.0958 250.0339 15.76273748333818
STARLINK-1321,45573,53.0469,0.0004062,15.56187875,395.94906807454754,401.4545719319176,1 45573U 20025AU  26113.43787866  .00072639  00000+0  10159-2 0  9999,2 45573  53.0469 202.9824 0004062 327.9494  32.1269 15.56187875332419
STARLINK-1331,45578,53.0484,0.000579,15.55820756,395.8434349828103,403.69224878971545,1 45578U 20025AZ  26113.70819330  .00066301  00000+0  94097-3 0  9999,2 45578  53.0484 208.4358 0005790 304.9954  55.0512 15.55820756332673
STARLINK-1333,45580,53.1562,0.0001524,15.31347737,470.7463452718257,472.8342031049988,1 45580U 20025BB  26113.49323523  .00037716  00000+0  12344-2 0  9994,2 45580  53.1562 229.6341 0001524  31.2035 328.9056 15.31347737332360
STARLINK-1335,45581,53.157,0.00021,15.32832397,465.92890128369345,468.80401273563893,1 45581U 20025BC  26113.63419370  .00014244  00000+0  45364-3 0  9997,2 45581  53.1570 226.2119 0002100   1.8257 358.2753 15.32832397332414
STARLINK-1337,45582,53.0482,0.0006471,15.67096802,362.85019506115077,371.58002976503485,1 45582U 20025BD  26113.71341038  .00095567  00000+0  87224-3 0  9990,2 45582  53.0482 201.6208 0006471 316.1811  43.8690 15.67096802332750
STARLINK-1347,45586,53.0393,0.0004377,15.631582,375.5835517547848,381.49834763194576,1 45586U 20025BH  26112.47397456  .00074951  00000+0  80378-3 0  9998,2 45586  53.0393 176.5816 0004377 347.0870  13.0031 15.63158200332992
STARLINK-1364,45589,53.0454,0.0004528,15.57361012,392.23111957516267,398.36514242979774,1 45589U 20025BL  26113.59015468  .00073694  00000+0  98641-3 0  9990,2 45589  53.0454 206.5761 0004528 276.9188  83.1308 15.57361012332676
STARLINK-1365,45590,53.0494,0.0003621,15.52213609,407.80635806449664,412.7225183860601,1 45590U 20025BM  26113.32020072  .00047189  00000+0  76789-3 0  9999,2 45590  53.0494 239.7446 0003621 266.7883  93.2711 15.52213609332204
STARLINK-1443,45660,53.1348,0.0002034,15.29042751,477.27791038149735,480.0672605208583,1 45660U 20035D   26113.54448121  .00040519  00000+0  14224-2 0  9996,2 45660  53.1348 217.4088 0002034 310.8400  49.2423 15.29042751325619
STARLINK-1446,45663,53.0232,0.0004247,15.44892632,428.8014349884006,434.58570507458444,1 45663U 20035G   26113.34877486  .00023414  00000+0  49787-3 0  9995,2 45663  53.0232 146.9195 0004247  45.4730 314.6622 15.44892632326577
STARLINK-1448,45665,53.0451,0.0006283,15.61974673,377.7062313378992,386.2009611811591,1 45665U 20035J   26113.70505191  .00095215  00000+0  10645-2 0  9996,2 45665  53.0451 194.3655 0006283 306.5706  53.4728 15.61974673325935
STARLINK-1451,45668,53.0518,9.67e-05,15.12288894,528.5535979413708,529.8894810829124,1 45668U 20035M   26113.71780591  .00016885  00000+0  97913-3 0  9999,2 45668  53.0518 222.3946 0000967  22.2511 337.8523 15.12288894325555
STARLINK-1452,45669,53.0277,0.000128,15.51322557,411.99436581704504,413.7328619742011,1 45669U 20035N   26112.44320311  .00052311  00000+0  87750-3 0  9991,2 45669  53.0277 172.2007 0001280 297.8573  62.2305 15.51322557326147
STARLINK-1453,45670,53.0425,0.0002619,15.6237262,379.03548621408027,382.575820375876,1 45670U 20035P   26112.85337019  .00136114  00000+0  14894-2 0  9993,2 45670  53.0425 158.9740 0002619  29.4291 330.6869 15.62372620326259
STARLINK-1454,45671,53.0458,0.0004321,15.59688031,385.63535790748665,391.48313680445153,1 45671U 20035Q   26113.39887602  .00045451  00000+0  56172-3 0  9991,2 45671  53.0458 196.4651 0004321 288.7728  71.2815 15.59688031325879
STARLINK-1456,45673,53.0446,0.0006849,15.57763035,389.49437425766973,398.7710292951624,1 45673U 20035S   26112.93422430  .00075091  00000+0  98929-3 0  9995,2 45673  53.0446 192.7709 0006849 343.4360  16.6427 15.57763035325901
STARLINK-1457,45674,53.0385,0.0005061,15.95298164,284.1102412537166,290.8571825382969,1 45674U 20035T   26114.00003472  .00301279  46841-4  75165-3 0  9992,2 45674  53.0385 152.9166 0005061   4.8388 186.7523 15.95298164  5923
STARLINK-1458,45675,53.0482,0.0005505,15.4968748,413.8984942023626,421.38064420505543,1 45675U 20035U   26114.00003472  .00059812  00000+0  10605-2 0  9995,2 45675  53.0482 199.2967 0005505 299.5769 135.4383 15.49687480  5976
STARLINK-1460,45676,53.1606,0.0001714,15.31268567,470.85225849588187,473.200494501345,1 45676U 20035V   26113.26881914  .00036575  00000+0  12006-2 0  9996,2 45676  53.1606 217.8198 0001714  17.1521 342.9538 15.31268567325544
STARLINK-1392,45677,53.1523,0.000116,15.34159564,462.62433962290106,464.21158037362056,1 45677U 20035W   26113.31416647  .00040408  00000+0  12098-2 0  9991,2 45677  53.1523 217.2706 0001160  38.5415 321.5670 15.34159564325590
STARLINK-1394,45679,53.043,0.0007853,15.57827952,388.6264444756662,399.2626757739972,1 45679U 20035Y   26113.63713531  .00069389  00000+0  91282-3 0  9992,2 45679  53.0430 179.5812 0007853 347.5744  12.5072 15.57827952326142
STARLINK-1402,45685,53.0418,0.0007786,15.51785702,406.22590048451184,416.7987424078674,1 45685U 20035AE  26113.31864024  .00057530  00000+0  94686-3 0  9994,2 45685  53.0418 169.7176 0007786  11.8599 348.2592 15.51785702326262
